NORAD_CAT_ID,OBJECT_NAME,OBJECT_TYPE,EPOCH,MEAN_MOTION,ECCENTRICITY,INCLINATION,RA_OF_ASC_NODE,ARG_OF_PERICENTER,MEAN_ANOMALY,BSTAR,MEAN_MOTION_DOT,MEAN_MOTION_DDOT,TLE_LINE0,TLE_LINE1,TLE_LINE2,SEMIMAJOR_AXIS,PERIOD,APOGEE,PERIGEE,DECAYED
53842.0,STARLINK-4754,PAYLOAD,2023-10-05 11:23:17,15.08845376,0.0001635,53.2169,312.4656,89.7854,270.3325,0.0016468,0.00026022,0.0,0 STARLINK-4754,1 53842U 22114AA  23278.47450520  .00026022  00000-0  16468-2 0  9990,2 53842  53.2169 312.4656 0001635  89.7854 270.3325 15.08845376 59185,6917.864,95.437,540.86,538.598,0.0
53842.0,STARLINK-4754,PAYLOAD,2023-10-05 19:20:13,15.08843373,0.0002166,53.2166,310.979,81.4615,278.6623,0.0012449,0.00019582,0.0,0 STARLINK-4754,1 53842U 22114AA  23278.80570949  .00019582  00000-0  12449-2 0  9993,2 53842  53.2166 310.9790 0002166  81.4615 278.6623 15.08843373 58690,6917.87,95.437,541.233,538.237,0.0
53842.0,STARLINK-4754,PAYLOAD,2023-10-06 09:38:41,15.0884281,0.0001638,53.2176,308.3017,84.2312,275.8867,0.00045665,6.988e-05,0.0,0 STARLINK-4754,1 53842U 22114AA  23279.40186754  .00006988  00000-0  45665-3 0  9990,2 53842  53.2176 308.3017 0001638  84.2312 275.8867 15.08842810 58786,6917.872,95.437,540.87,538.604,0.0
53842.0,STARLINK-4754,PAYLOAD,2023-10-06 11:14:04,15.08844845,0.0001668,53.2169,308.0044,84.4826,275.6357,0.00043374,6.623e-05,0.0,0 STARLINK-4754,1 53842U 22114AA  23279.46810721  .00006623  00000-0  43374-3 0  9995,2 53842  53.2169 308.0044 0001668  84.4826 275.6357 15.08844845 59334,6917.866,95.437,540.884,538.577,0.0
53842.0,STARLINK-4754,PAYLOAD,2023-10-06 19:11:00,15.08842457,0.0001428,53.2164,306.5184,90.9706,269.145,0.00032634,4.91e-05,0.0,0 STARLINK-4754,1 53842U 22114AA  23279.79930713  .00004910  00000-0  32634-3 0  9999,2 53842  53.2164 306.5184 0001428  90.9706 269.1450 15.08842457 59384,6917.873,95.437,540.726,538.75,0.0
53842.0,STARLINK-4754,PAYLOAD,2023-10-07 01:32:32,15.08842025,0.0001498,53.2166,305.3287,90.4582,269.6582,0.00025605,3.79e-05,0.0,0 STARLINK-4754,1 53842U 22114AA  23280.06426801  .00003790  00000-0  25605-3 0  9994,2 53842  53.2166 305.3287 0001498  90.4582 269.6582 15.08842025 58887,6917.874,95.437,540.775,538.703,0.0
53842.0,STARLINK-4754,PAYLOAD,2023-10-07 09:29:28,15.08847807,0.0001538,53.2168,303.8424,90.3625,269.7543,0.00032647,4.913e-05,0.0,0 STARLINK-4754,1 53842U 22114AA  23280.39546598  .00004913  00000-0  32647-3 0  9998,2 53842  53.2168 303.8424 0001538  90.3625 269.7543 15.08847807 59474,6917.857,95.437,540.785,538.658,0.0
53842.0,STARLINK-4754,PAYLOAD,2023-10-07 19:01:47,15.08842004,0.0001767,53.2164,302.0599,76.7001,283.4188,0.00020902,3.04e-05,0.0,0 STARLINK-4754,1 53842U 22114AA  23280.79290983  .00003040  00000-0  20902-3 0  9997,2 53842  53.2164 302.0599 0001767  76.7001 283.4188 15.08842004 59533,6917.874,95.437,540.962,538.517,0.0
53842.0,STARLINK-4754,PAYLOAD,2023-10-08 01:23:20,15.08840076,0.000182,53.2174,300.8698,76.2616,283.8579,0.00016528,2.343e-05,0.0,0 STARLINK-4754,1 53842U 22114AA  23281.05787129  .00002343  00000-0  16528-3 0  9994,2 53842  53.2174 300.8698 0001820  76.2616 283.8579 15.08840076 59037,6917.88,95.438,541.004,538.486,0.0
53842.0,STARLINK-4754,PAYLOAD,2023-10-08 10:55:38,15.08846187,0.0001722,53.2177,299.082,89.6846,270.4343,0.00018814,2.708e-05,0.0,0 STARLINK-4754,1 53842U 22114AA  23281.45530846  .00002708  00000-0  18814-3 0  9995,2 53842  53.2177 299.0820 0001722  89.6846 270.4343 15.08846187 59636,6917.861,95.437,540.918,538.535,0.0
53842.0,STARLINK-4754,PAYLOAD,2023-10-08 18:52:34,15.08843538,0.0001659,53.2168,297.5952,91.3215,268.7967,0.0001669,2.369e-05,0.0,0 STARLINK-4754,1 53842U 22114AA  23281.78650920  .00002369  00000-0  16690-3 0  9990,2 53842  53.2168 297.5952 0001659  91.3215 268.7967 15.08843538 59688,6917.87,95.437,540.882,538.587,0.0
53842.0,STARLINK-4754,PAYLOAD,2023-10-09 07:35:39,15.08851097,0.0001623,53.2167,295.2165,98.5796,261.538,0.00020622,2.996e-05,0.0,0 STARLINK-4754,1 53842U 22114AA  23282.31642473  .00002996  00000-0  20622-3 0  9990,2 53842  53.2167 295.2165 0001623  98.5796 261.5380 15.08851097 59221,6917.846,95.437,540.834,538.589,0.0
53842.0,STARLINK-4754,PAYLOAD,2023-10-10 01:04:54,15.08839683,0.0001821,53.2173,291.9453,96.2267,263.8933,0.0001284,1.756e-05,0.0,0 STARLINK-4754,1 53842U 22114AA  23283.04507076  .00001756  00000-0  12840-3 0  9996,2 53842  53.2173 291.9453 0001821  96.2267 263.8933 15.08839683 59337,6917.881,95.438,541.006,538.487,0.0
53842.0,STARLINK-4754,PAYLOAD,2023-10-10 09:01:49,15.08845082,0.000175,53.2178,290.4568,98.825,261.294,0.00011999,1.622e-05,0.0,0 STARLINK-4754,1 53842U 22114AA  23283.37626689  .00001622  00000-0  11999-3 0  9990,2 53842  53.2178 290.4568 0001750  98.8250 261.2940 15.08845082 59929,6917.865,95.437,540.94,538.519,0.0
53842.0,STARLINK-4754,PAYLOAD,2023-10-11 00:55:41,15.08832076,0.0001737,53.2181,287.4877,100.9799,259.1389,-9.326e-05,-1.772e-05,0.0,0 STARLINK-4754,1 53842U 22114AA  23284.03867502 -.00001772  00000-0 -93260-4 0  9995,2 53842  53.2181 287.4877 0001737 100.9799 259.1389 15.08832076 59483,6917.905,95.438,540.971,538.568,0.0
53842.0,STARLINK-4754,PAYLOAD,2023-10-11 07:17:14,15.08838875,0.0001617,53.2182,286.298,96.1561,263.9616,-3.2769e-05,-8.1e-06,0.0,0 STARLINK-4754,1 53842U 22114AA  23284.30363570 -.00000810  00000-0 -32769-4 0  9990,2 53842  53.2182 286.2980 0001617  96.1561 263.9616 15.08838875 60061,6917.884,95.438,540.867,538.63,0.0
53842.0,STARLINK-4754,PAYLOAD,2023-10-12 03:57:15,15.08835763,0.0001713,53.2185,282.4324,103.2386,256.8797,9.1683e-05,1.171e-05,0.0,0 STARLINK-4754,1 53842U 22114AA  23285.16475918  .00001171  00000-0  91683-4 0  9994,2 53842  53.2185 282.4324 0001713 103.2386 256.8797 15.08835763 59653,6917.893,95.438,540.943,538.573,0.0
53842.0,STARLINK-4754,PAYLOAD,2023-10-12 05:32:38,15.08836454,0.000169,53.2186,282.1351,102.5847,257.5334,9.7344e-05,1.261e-05,0.0,0 STARLINK-4754,1 53842U 22114AA  23285.23099900  .00001261  00000-0  97344-4 0  9995,2 53842  53.2186 282.1351 0001690 102.5847 257.5334 15.08836454 60205,6917.891,95.438,540.925,538.587,0.0
53842.0,STARLINK-4754,PAYLOAD,2023-10-12 16:40:19,15.08845099,0.0001614,53.218,280.0533,98.9927,261.1248,0.00010993,1.462e-05,0.0,0 STARLINK-4754,1 53842U 22114AA  23285.69467409  .00001462  00000-0  10993-3 0  9995,2 53842  53.2180 280.0533 0001614  98.9927 261.1248 15.08845099 59737,6917.865,95.437,540.846,538.613,0.0
53842.0,STARLINK-4754,PAYLOAD,2023-10-13 08:34:11,15.08841721,0.0001853,53.2189,277.0796,92.5475,267.5729,0.00020042,2.903e-05,0.0,0 STARLINK-4754,1 53842U 22114AA  23286.35707776  .00002903  00000-0  20042-3 0  9990,2 53842  53.2189 277.0796 0001853  92.5475 267.5729 15.08841721 59839,6917.875,95.437,541.022,538.458,0.0
53842.0,STARLINK-4754,PAYLOAD,2023-10-14 08:24:57,15.08859105,0.0001631,53.2159,272.6163,109.9962,250.1206,0.00027379,4.074e-05,0.0,0 STARLINK-4754,1 53842U 22114AA  23287.35066665  .00004074  00000-0  27379-3 0  9997,2 53842  53.2159 272.6163 0001631 109.9962 250.1206 15.08859105 59982,6917.822,95.436,540.815,538.559,0.0
53842.0,STARLINK-4754,PAYLOAD,2023-10-14 22:43:27,15.08838249,0.0002757,53.2173,269.9436,82.4097,277.7208,4.1055e-05,3.65e-06,0.0,0 STARLINK-4754,1 53842U 22114AA  23287.94684234  .00000365  00000-0  41055-4 0  9997,2 53842  53.2173 269.9436 0002757  82.4097 277.7208 15.08838249 60619,6917.886,95.438,541.658,537.843,0.0
53842.0,STARLINK-4754,PAYLOAD,2023-10-15 05:05:00,15.08820997,0.0001369,53.2164,268.7517,99.4735,260.6412,-0.00025734,-4.379e-05,0.0,0 STARLINK-4754,1 53842U 22114AA  23288.21180919 -.00004379  00000-0 -25734-3 0  9995,2 53842  53.2164 268.7517 0001369  99.4735 260.6412 15.08820997 60115,6917.938,95.439,540.751,538.856,0.0
53842.0,STARLINK-4754,PAYLOAD,2023-10-15 08:15:46,15.08822567,0.0001439,53.2159,268.1561,100.3444,259.7711,-0.00021019,-3.63e-05,0.0,0 STARLINK-4754,1 53842U 22114AA  23288.34428983 -.00003630  00000-0 -21019-3 0  9996,2 53842  53.2159 268.1561 0001439 100.3444 259.7711 15.08822567 60676,6917.934,95.439,540.794,538.803,0.0
53842.0,STARLINK-4754,PAYLOAD,2023-10-15 16:12:42,15.08829358,0.0001457,53.2179,266.67,107.2074,252.9078,-2.0033e-05,-6.07e-06,0.0,0 STARLINK-4754,1 53842U 22114AA  23288.67548966 -.00000607  00000-0 -20033-4 0  9993,2 53842  53.2179 266.6700 0001457 107.2074 252.9078 15.08829358 60183,6917.913,95.438,540.786,538.77,0.0
53842.0,STARLINK-4754,PAYLOAD,2023-10-16 04:55:47,15.08849163,0.0001343,53.2159,264.2909,96.3982,263.7163,0.0004777,7.325e-05,0.0,0 STARLINK-4754,1 53842U 22114AA  23289.20540547  .00007325  00000-0  47770-3 0  9998,2 53842  53.2159 264.2909 0001343  96.3982 263.7163 15.08849163 60266,6917.852,95.437,540.646,538.788,0.0
53842.0,STARLINK-4754,PAYLOAD,2023-10-16 22:25:01,15.08850424,0.0001422,53.2154,261.0194,96.5172,263.5982,0.00045396,6.946e-05,0.0,0 STARLINK-4754,1 53842U 22114AA  23289.93404789  .00006946  00000-0  45396-3 0  9995,2 53842  53.2154 261.0194 0001422  96.5172 263.5982 15.08850424 60914,6917.849,95.437,540.697,538.73,0.0
53842.0,STARLINK-4754,PAYLOAD,2023-10-17 07:57:20,15.08865728,0.0001349,53.2172,259.2353,86.2705,273.8441,0.0007069,0.00010988,0.0,0 STARLINK-4754,1 53842U 22114AA  23290.33148195  .00010988  00000-0  70690-3 0  9993,2 53842  53.2172 259.2353 0001349  86.2705 273.8441 15.08865728 60979,6917.802,95.436,540.6,538.734,0.0
53842.0,STARLINK-4754,PAYLOAD,2023-10-18 03:01:57,15.0885313,0.0001565,53.2169,255.6657,103.2501,256.8666,0.00021738,3.175e-05,0.0,0 STARLINK-4754,1 53842U 22114AA  23291.12635928  .00003175  00000-0  21738-3 0  9995,2 53842  53.2169 255.6657 0001565 103.2501 256.8666 15.08853130 61094,6917.84,95.437,540.788,538.623,0.0
53842.0,STARLINK-4754,PAYLOAD,2023-10-18 04:37:20,15.08853234,0.0001354,53.2167,255.3706,97.291,262.8236,0.00019985,2.895e-05,0.0,0 STARLINK-4754,1 53842U 22114AA  23291.19259931  .00002895  00000-0  19985-3 0  9997,2 53842  53.2167 255.3706 0001354  97.2910 262.8236 15.08853234 60562,6917.84,95.437,540.642,538.768,0.0
